     2              NAVIGATION DATA                         RINEX VERSION / TYPE
CCRINEXN V1.6.0 UX  CDDIS               07-JUL-16 15:33     PGM / RUN BY / DATE 
IGS BROADCAST EPHEMERIS FILE                                COMMENT             
    0.4657D-08  0.1490D-07 -0.5960D-07 -0.1192D-06          ION ALPHA           
    0.8192D+05  0.8192D+05 -0.6554D+05 -0.5243D+06          ION BETA            
   -0.279396772385D-08-0.177635683940D-14   503808     1904 DELTA-UTC: A0,A1,T,W
    17                                                      LEAP SECONDS        
                                                            END OF HEADER       
19 16  7  6  4  0  0.0-0.525136478245D-03 0.227373675443D-12 0.000000000000D+00
    0.280000000000D+02-0.992500000000D+02 0.427910681340D-08-0.182075988712D+01
   -0.522099435329D-05 0.107741795946D-01 0.193715095520D-05 0.515362633896D+04
    0.273600000000D+06 0.147148966789D-06 0.241350513103D+01-0.104308128357D-06
    0.974003800059D+00 0.340437500000D+03 0.809284242143D+00-0.811605235187D-08
   -0.267868300647D-10 0.000000000000D+00 0.190400000000D+04 0.000000000000D+00
    0.200000000000D+01 0.000000000000D+00-0.149011611938D-07 0.280000000000D+02
    0.270390000000D+06 0.400000000000D+01 0.000000000000D+00 0.000000000000D+00
20 16  7  6  4  0  0.0 0.422590412199D-03 0.227373675443D-11 0.000000000000D+00
    0.190000000000D+02 0.391875000000D+02 0.566559313755D-08 0.524534458977D+00
    0.215135514736D-05 0.457117834594D-02 0.824406743050D-05 0.515375849915D+04
    0.273600000000D+06-0.540167093277D-07-0.195591465039D+01 0.502914190292D-07
    0.926026677505D+00 0.203687500000D+03 0.138992980619D+01-0.859857245077D-08
    0.570023743777D-09 0.100000000000D+01 0.190400000000D+04 0.000000000000D+00
    0.200000000000D+01 0.000000000000D+00-0.838190317154D-08 0.190000000000D+02
    0.266400000000D+06 0.400000000000D+01 0.000000000000D+00 0.000000000000D+00
21 16  7  6  4  0  0.0-0.527661759406D-03-0.909494701773D-12 0.000000000000D+00
    0.280000000000D+02-0.956562500000D+02 0.460376319379D-08-0.247022707316D+01
   -0.511482357979D-05 0.233430891531D-01 0.110231339931D-04 0.515359772873D+04
    0.273600000000D+06 0.298023223877D-06-0.294573265926D+01 0.875443220139D-07
    0.937154526259D+00 0.142281250000D+03-0.177785049127D+01-0.766567644905D-08
    0.348943106310D-09 0.100000000000D+01 0.190400000000D+04 0.000000000000D+00
    0.200000000000D+01 0.000000000000D+00-0.102445483208D-07 0.280000000000D+02
    0.266400000000D+06 0.400000000000D+01 0.000000000000D+00 0.000000000000D+00
22 16  7  6  4  0  0.0 0.303628388792D-03-0.909494701773D-11 0.000000000000D+00
    0.270000000000D+02 0.301250000000D+02 0.583952895411D-08 0.876031874930D+00
    0.165030360222D-05 0.764621538110D-02 0.812858343124D-05 0.515377976418D+04
    0.273600000000D+06-0.689178705216D-07-0.190358011077D+01 0.577419996262D-07
    0.922622408618D+00 0.206406250000D+03-0.189334336638D+01-0.869071914619D-08
    0.605739517197D-09 0.000000000000D+00 0.190400000000D+04 0.000000000000D+00
    0.200000000000D+01 0.000000000000D+00-0.176951289177D-07 0.270000000000D+02
    0.266400000000D+06 0.400000000000D+01 0.000000000000D+00 0.000000000000D+00
24 16  7  6  4  0  0.0-0.196853652596D-04-0.682121026330D-12 0.000000000000D+00
    0.890000000000D+02 0.438125000000D+02 0.445089968355D-08-0.506297675388D+00
    0.211223959923D-05 0.443940714467D-02 0.111982226372D-04 0.515361862564D+04
    0.273600000000D+06 0.596046447754D-07 0.199760562566D+00 0.108033418655D-06
    0.949418474268D+00 0.159187500000D+03 0.412052043987D+00-0.798604693662D-08
   -0.511807033103D-09 0.100000000000D+01 0.190400000000D+04 0.000000000000D+00
    0.280000000000D+01 0.000000000000D+00 0.232830643654D-08 0.890000000000D+02
    0.271770000000D+06 0.400000000000D+01 0.000000000000D+00 0.000000000000D+00
25 16  7  6  4  0  0.0-0.203169416636D-03-0.704858393874D-11 0.000000000000D+00
    0.960000000000D+02 0.113531250000D+03 0.400802409315D-08-0.259807048347D+01
    0.599026679993D-05 0.561196939088D-02 0.390969216824D-05 0.515373174667D+04
    0.273600000000D+06-0.335276126862D-07 0.127304342993D+01 0.335276126862D-07
    0.978301806563D+00 0.314468750000D+03 0.793115818446D+00-0.792354433314D-08
    0.347157317639D-09 0.100000000000D+01 0.190400000000D+04 0.000000000000D+00
    0.200000000000D+01 0.000000000000D+00 0.558793544769D-08 0.960000000000D+02
    0.266400000000D+06 0.400000000000D+01 0.000000000000D+00 0.000000000000D+00
26 16  7  6  4  0  0.0-0.415593385696D-03-0.103455022327D-10 0.000000000000D+00
    0.830000000000D+02 0.125218750000D+03 0.449911597767D-08 0.289766486065D+01
    0.648014247417D-05 0.993376364931D-03 0.404939055443D-05 0.515378711700D+04
    0.273600000000D+06 0.614672899246D-07 0.126337280265D+01-0.149011611938D-07
    0.960261304155D+00 0.302468750000D+03 0.178160942855D+00-0.834034740895D-08
    0.340014162955D-09 0.100000000000D+01 0.190400000000D+04 0.000000000000D+00
    0.200000000000D+01 0.000000000000D+00 0.698491930962D-08 0.830000000000D+02
    0.266400000000D+06 0.400000000000D+01 0.000000000000D+00 0.000000000000D+00
27 16  7  6  4  0  0.0 0.111434608698D-03 0.432009983342D-11 0.000000000000D+00
    0.120000000000D+02-0.829062500000D+02 0.445911431144D-08 0.133177518889D+01
   -0.438839197159D-05 0.376725278329D-02 0.198557972908D-05 0.515364462280D+04
    0.273600000000D+06-0.577419996262D-07 0.231468262730D+01 0.596046447754D-07
    0.971753776463D+00 0.346750000000D+03 0.322845673830D+00-0.837570602463D-08
   -0.213937482783D-09 0.100000000000D+01 0.190400000000D+04 0.000000000000D+00
    0.200000000000D+01 0.000000000000D+00 0.139698386192D-08 0.120000000000D+02
    0.269190000000D+06 0.400000000000D+01 0.000000000000D+00 0.000000000000D+00
28 16  7  6  4  0  0.0 0.535152386874D-03 0.272848410532D-11 0.000000000000D+00
    0.120000000000D+02 0.107906250000D+03 0.374194158117D-08 0.215770409601D+01
    0.537186861038D-05 0.197532059392D-01 0.409223139286D-05 0.515362756538D+04
    0.273600000000D+06 0.273808836937D-06 0.134815092271D+01-0.169500708580D-06
    0.989290977997D+00 0.309656250000D+03-0.161443732213D+01-0.765603319023D-08
    0.320370487574D-09 0.000000000000D+00 0.190400000000D+04 0.000000000000D+00
    0.200000000000D+01 0.000000000000D+00-0.111758708954D-07 0.120000000000D+02
    0.266400000000D+06 0.400000000000D+01 0.000000000000D+00 0.000000000000D+00
29 16  7  6  4  0  0.0 0.655872747302D-03-0.454747350886D-12 0.000000000000D+00
    0.860000000000D+02-0.971562500000D+02 0.420481800469D-08-0.271159548653D+01
   -0.496022403240D-05 0.855645630509D-03 0.284984707832D-05 0.515354804993D+04
    0.273600000000D+06-0.111758708954D-07 0.237458239322D+01-0.111758708954D-07
    0.977839424971D+00 0.333343750000D+03-0.978603600711D-01-0.817141180067D-08
   -0.140362989539D-09 0.100000000000D+01 0.190400000000D+04 0.000000000000D+00
    0.200000000000D+01 0.000000000000D+00-0.102445483208D-07 0.860000000000D+02
    0.266400000000D+06 0.400000000000D+01 0.000000000000D+00 0.000000000000D+00
30 16  7  6  4  0  0.0 0.137842260301D-03 0.250111042988D-11 0.000000000000D+00
    0.130000000000D+02 0.541875000000D+02 0.427517807833D-08-0.136363763097D+01
    0.277906656265D-05 0.227110972628D-02 0.121481716633D-04 0.515359253883D+04
    0.273600000000D+06-0.124797224999D-06 0.291135702925D+00-0.670552253723D-07
    0.952123057233D+00 0.141093750000D+03 0.306778956440D+01-0.778353850134D-08
   -0.383230248792D-09 0.000000000000D+00 0.190400000000D+04 0.000000000000D+00
    0.200000000000D+01 0.000000000000D+00 0.325962901115D-08 0.130000000000D+02
    0.266400000000D+06 0.400000000000D+01 0.000000000000D+00 0.000000000000D+00
31 16  7  6  4  0  0.0 0.260344240814D-03-0.193267624127D-11 0.000000000000D+00
    0.340000000000D+02 0.687500000000D+02 0.393694987722D-08-0.161872457179D+01
    0.350177288055D-05 0.814713456202D-02 0.122115015984D-04 0.515378333855D+04
    0.273600000000D+06-0.558793544769D-07 0.257097389641D+00-0.108033418655D-06
    0.971159967774D+00 0.151281250000D+03-0.393817078805D+00-0.769710606363D-08
   -0.334299643523D-09 0.100000000000D+01 0.190400000000D+04 0.000000000000D+00
    0.200000000000D+01 0.000000000000D+00-0.135041773319D-07 0.340000000000D+02
    0.266400000000D+06 0.000000000000D+00 0.000000000000D+00 0.000000000000D+00
32 16  7  6  4  0  0.0-0.409814529121D-04-0.954969436862D-11 0.000000000000D+00
    0.570000000000D+02-0.230625000000D+02 0.499092234207D-08 0.167921326172D+01
   -0.119209289551D-05 0.567138427868D-03 0.615417957306D-05 0.515361499596D+04
    0.273600000000D+06-0.484287738800D-07-0.828660052286D+00 0.335276126862D-07
    0.959219630411D+00 0.261781250000D+03-0.230467976986D+01-0.818355516685D-08
   -0.495734953088D-09 0.100000000000D+01 0.190400000000D+04 0.000000000000D+00
    0.200000000000D+01 0.000000000000D+00 0.465661287308D-09 0.570000000000D+02
    0.266400000000D+06 0.000000000000D+00 0.000000000000D+00 0.000000000000D+00
 3 16  7  6  5 59 44.0-0.706906430423D-04-0.318323145621D-11 0.000000000000D+00
    0.000000000000D+00 0.310312500000D+02 0.493591967299D-08 0.105947238380D+01
    0.168569386005D-05 0.198571477085D-03 0.806152820587D-05 0.515366320229D+04
    0.280784000000D+06 0.204890966415D-07-0.186978178334D+01 0.204890966415D-07
    0.958966399291D+00 0.224687500000D+03-0.141901062365D+01-0.809390865442D-08
    0.677885358957D-09 0.100000000000D+01 0.190400000000D+04 0.000000000000D+00
    0.200000000000D+01 0.000000000000D+00 0.186264514923D-08 0.000000000000D+00
    0.277830000000D+06 0.000000000000D+00 0.000000000000D+00 0.000000000000D+00
